[{"OBJECT_NAME":"ZHANGHENG 1-01 (CSES-1)","OBJECT_ID":"2018-015C","EPOCH":"2026-03-09T23:37:11.256384","MEAN_MOTION":15.21039097,"ECCENTRICITY":0.00148927,"INCLINATION":97.6761,"RA_OF_ASC_NODE":232.7218,"ARG_OF_PERICENTER":243.5493,"MEAN_ANOMALY":116.4215,"EPHEMERIS_TYPE":0,"CLASSIFICATION_TYPE":"U","NORAD_CAT_ID":43194,"ELEMENT_SET_NO":999,"REV_AT_EPOCH":44956,"BSTAR":0.0005179147,"MEAN_MOTION_DOT":0.00011466,"MEAN_MOTION_DDOT":0},{"OBJECT_NAME":"TRANSPORTER-14 OBJECT V","OBJECT_ID":"2025-135V","EPOCH":"2026-03-09T17:31:27.373152","MEAN_MOTION":15.23374465,"ECCENTRICITY":0.00011439,"INCLINATION":97.4496,"RA_OF_ASC_NODE":185.0128,"ARG_OF_PERICENTER":144.8208,"MEAN_ANOMALY":215.3104,"EPHEMERIS_TYPE":0,"CLASSIFICATION_TYPE":"U","NORAD_CAT_ID":64547,"ELEMENT_SET_NO":999,"REV_AT_EPOCH":3977,"BSTAR":0.00049387386,"MEAN_MOTION_DOT":0.0001168,"MEAN_MOTION_DDOT":0}]
